[{"OBJECT_NAME":"STARLINK-30878","OBJECT_ID":"2023-177J","EPOCH":"2026-03-09T04:36:10.431360","MEAN_MOTION":15.02536419,"ECCENTRICITY":0.00012405,"INCLINATION":43.0075,"RA_OF_ASC_NODE":354.0522,"ARG_OF_PERICENTER":273.5334,"MEAN_ANOMALY":86.5367,"EPHEMERIS_TYPE":0,"CLASSIFICATION_TYPE":"U","NORAD_CAT_ID":58359,"ELEMENT_SET_NO":999,"REV_AT_EPOCH":12814,"BSTAR":-5.8001014e-5,"MEAN_MOTION_DOT":-9.87e-6,"MEAN_MOTION_DDOT":0},{"OBJECT_NAME":"UNKNOWN","OBJECT_ID":"","EPOCH":"2026-03-08T11:45:51.038784","MEAN_MOTION":14.85715368,"ECCENTRICITY":0.0087365,"INCLINATION":97.6779,"RA_OF_ASC_NODE":256.4518,"ARG_OF_PERICENTER":23.5839,"MEAN_ANOMALY":6.4538,"EPHEMERIS_TYPE":0,"CLASSIFICATION_TYPE":"U","NORAD_CAT_ID":81845,"ELEMENT_SET_NO":999,"REV_AT_EPOCH":66225,"BSTAR":0.00036382,"MEAN_MOTION_DOT":3.326e-5,"MEAN_MOTION_DDOT":0}]
